{
  "type": "FeatureCollection",
  "features": [
    {
      "type": "Feature",
      "properties": {
        "norad_id": 35459,
        "name": "COSMOS 2251 DEB",
        "group": "cosmos-2251-debris",
        "lat": 70.87098161610963,
        "lon": -67.36767674657999,
        "alt_km": 748.5475333028526,
        "timestamp": "2025-12-22T11:33:20.836223+00:00",
        "meta_object_name": "COSMOS 2251 DEB",
        "meta_object_id": "1993-036ALD",
        "meta_epoch": "2025-12-21T18:23:18.751200",
        "meta_mean_motion": 14.37474606,
        "meta_eccentricity": 0.0015969,
        "meta_inclination": 73.8701,
        "meta_ra_of_asc_node": 170.5081,
        "meta_arg_of_pericenter": 115.4549,
        "meta_mean_anomaly": 244.8258,
        "meta_ephemeris_type": 0,
        "meta_classification_type": "U",
        "meta_norad_cat_id": 35459,
        "meta_element_set_no": 999,
        "meta_rev_at_epoch": 58491,
        "meta_bstar": 0.00020109,
        "meta_mean_motion_dot": 5.75e-06,
        "meta_mean_motion_ddot": 0,
        "tle_line1": "1 35459U 93036ALD 25355.76618925  .00000575  00000+0  20109-3 0  9992",
        "tle_line2": "2 35459  73.8701 170.5081 0015969 115.4549 244.8258 14.37474606584917"
      },
      "geometry": {
        "type": "Point",
        "coordinates": [
          -67.36767674657999,
          70.87098161610963
        ]
      }
    },
    {
      "type": "Feature",
      "properties": {
        "norad_id": 35462,
        "name": "COSMOS 2251 DEB",
        "group": "cosmos-2251-debris",
        "lat": -55.0329026620196,
        "lon": 95.15274981057196,
        "alt_km": 756.7514579868348,
        "timestamp": "2025-12-22T11:33:20.836233+00:00",
        "meta_object_name": "COSMOS 2251 DEB",
        "meta_object_id": "1993-036ALG",
        "meta_epoch": "2025-12-19T10:12:24.458112",
        "meta_mean_motion": 14.29342636,
        "meta_eccentricity": 0.0086733,
        "meta_inclination": 74.0371,
        "meta_ra_of_asc_node": 256.5417,
        "meta_arg_of_pericenter": 290.2864,
        "meta_mean_anomaly": 68.8979,
        "meta_ephemeris_type": 0,
        "meta_classification_type": "U",
        "meta_norad_cat_id": 35462,
        "meta_element_set_no": 999,
        "meta_rev_at_epoch": 66476,
        "meta_bstar": 0.0010032,
        "meta_mean_motion_dot": 2.635e-05,
        "meta_mean_motion_ddot": 0,
        "tle_line1": "1 35462U 93036ALG 25353.42528308  .00002635  00000+0  10032-2 0  9994",
        "tle_line2": "2 35462  74.0371 256.5417 0086733 290.2864  68.8979 14.29342636664768"
      },
      "geometry": {
        "type": "Point",
        "coordinates": [
          95.15274981057196,
          -55.0329026620196
        ]
      }
    },
    {
      "type": "Feature",
      "properties": {
        "norad_id": 35465,
        "name": "COSMOS 2251 DEB",
        "group": "cosmos-2251-debris",
        "lat": 68.61063557197342,
        "lon": -48.255984236209194,
        "alt_km": 764.8137877292065,
        "timestamp": "2025-12-22T11:33:20.836242+00:00",
        "meta_object_name": "COSMOS 2251 DEB",
        "meta_object_id": "1993-036ALK",
        "meta_epoch": "2025-12-17T13:03:02.562624",
        "meta_mean_motion": 14.44331537,
        "meta_eccentricity": 0.00642719,
        "meta_inclination": 73.9967,
        "meta_ra_of_asc_node": 188.0661,
        "meta_arg_of_pericenter": 347.2721,
        "meta_mean_anomaly": 12.6809,
        "meta_ephemeris_type": 0,
        "meta_classification_type": "U",
        "meta_norad_cat_id": 35465,
        "meta_element_set_no": 999,
        "meta_rev_at_epoch": 87311,
        "meta_bstar": 0.00028334394,
        "meta_mean_motion_dot": 9.72e-06,
        "meta_mean_motion_ddot": 0,
        "tle_line1": "1 35465U 93036ALK 25351.54377966  .00000972  00000+0  28334-3 0  9997",
        "tle_line2": "2 35465  73.9967 188.0661 0064271 347.2721  12.6809 14.44331537873113"
      },
      "geometry": {
        "type": "Point",
        "coordinates": [
          -48.255984236209194,
          68.61063557197342
        ]
      }
    },
    {
      "type": "Feature",
      "properties": {
        "norad_id": 35469,
        "name": "COSMOS 2251 DEB",
        "group": "cosmos-2251-debris",
        "lat": 45.54039616855447,
        "lon": 168.5774883914655,
        "alt_km": 673.1838518767636,
        "timestamp": "2025-12-22T11:33:20.836252+00:00",
        "meta_object_name": "COSMOS 2251 DEB",
        "meta_object_id": "1993-036ALP",
        "meta_epoch": "2025-12-20T07:36:40.266144",
        "meta_mean_motion": 14.4982565,
        "meta_eccentricity": 0.00765645,
        "meta_inclination": 74.0168,
        "meta_ra_of_asc_node": 9.6263,
        "meta_arg_of_pericenter": 163.1432,
        "meta_mean_anomaly": 197.23,
        "meta_ephemeris_type": 0,
        "meta_classification_type": "U",
        "meta_norad_cat_id": 35469,
        "meta_element_set_no": 999,
        "meta_rev_at_epoch": 88221,
        "meta_bstar": 6.7527967e-05,
        "meta_mean_motion_dot": 2.41e-06,
        "meta_mean_motion_ddot": 0,
        "tle_line1": "1 35469U 93036ALP 25354.31713271  .00000241  00000+0  67528-4 0  9990",
        "tle_line2": "2 35469  74.0168   9.6263 0076564 163.1432 197.2300 14.49825650882216"
      },
      "geometry": {
        "type": "Point",
        "coordinates": [
          168.5774883914655,
          45.54039616855447
        ]
      }
    },
    {
      "type": "Feature",
      "properties": {
        "norad_id": 35475,
        "name": "COSMOS 2251 DEB",
        "group": "cosmos-2251-debris",
        "lat": -31.876111938095136,
        "lon": 136.46371829378393,
        "alt_km": 671.4352378318754,
        "timestamp": "2025-12-22T11:33:20.836262+00:00",
        "meta_object_name": "COSMOS 2251 DEB",
        "meta_object_id": "1993-036ALV",
        "meta_epoch": "2025-12-20T04:10:12.186624",
        "meta_mean_motion": 14.69875936,
        "meta_eccentricity": 0.00202744,
        "meta_inclination": 74.0213,
        "meta_ra_of_asc_node": 151.2034,
        "meta_arg_of_pericenter": 223.9843,
        "meta_mean_anomaly": 135.9716,
        "meta_ephemeris_type": 0,
        "meta_classification_type": "U",
        "meta_norad_cat_id": 35475,
        "meta_element_set_no": 999,
        "meta_rev_at_epoch": 65726,
        "meta_bstar": 0.0012274408,
        "meta_mean_motion_dot": 7.339e-05,
        "meta_mean_motion_ddot": 0,
        "tle_line1": "1 35475U 93036ALV 25354.17375216  .00007339  00000+0  12274-2 0  9995",
        "tle_line2": "2 35475  74.0213 151.2034 0020274 223.9843 135.9716 14.69875936657261"
      },
      "geometry": {
        "type": "Point",
        "coordinates": [
          136.46371829378393,
          -31.876111938095136
        ]
      }
    },
    {
      "type": "Feature",
      "properties": {
        "norad_id": 35476,
        "name": "COSMOS 2251 DEB",
        "group": "cosmos-2251-debris",
        "lat": 20.01424550524622,
        "lon": 47.79674278667723,
        "alt_km": 629.505760645754,
        "timestamp": "2025-12-22T11:33:20.836272+00:00",
        "meta_object_name": "COSMOS 2251 DEB",
        "meta_object_id": "1993-036ALW",
        "meta_epoch": "2025-12-20T04:26:15.503424",
        "meta_mean_motion": 14.75816221,
        "meta_eccentricity": 0.0018084,
        "meta_inclination": 73.9779,
        "meta_ra_of_asc_node": 46.2965,
        "meta_arg_of_pericenter": 24.5417,
        "meta_mean_anomaly": 39.7285,
        "meta_ephemeris_type": 0,
        "meta_classification_type": "U",
        "meta_norad_cat_id": 35476,
        "meta_element_set_no": 999,
        "meta_rev_at_epoch": 87997,
        "meta_bstar": 0.00092006008,
        "meta_mean_motion_dot": 6.297e-05,
        "meta_mean_motion_ddot": 0,
        "tle_line1": "1 35476U 93036ALW 25354.18490166  .00006297  00000+0  92006-3 0  9993",
        "tle_line2": "2 35476  73.9779  46.2965 0018084  24.5417  39.7285 14.75816221879976"
      },
      "geometry": {
        "type": "Point",
        "coordinates": [
          47.79674278667723,
          20.01424550524622
        ]
      }
    },
    {
      "type": "Feature",
      "properties": {
        "norad_id": 35580,
        "name": "COSMOS 2251 DEB",
        "group": "cosmos-2251-debris",
        "lat": 38.12435848668357,
        "lon": -30.94334043236381,
        "alt_km": 760.1192592507923,
        "timestamp": "2025-12-22T11:33:20.836282+00:00",
        "meta_object_name": "COSMOS 2251 DEB",
        "meta_object_id": "1993-036ALX",
        "meta_epoch": "2025-12-21T17:31:49.222848",
        "meta_mean_motion": 13.83913818,
        "meta_eccentricity": 0.0280794,
        "meta_inclination": 73.9009,
        "meta_ra_of_asc_node": 163.4331,
        "meta_arg_of_pericenter": 166.9266,
        "meta_mean_anomaly": 193.9339,
        "meta_ephemeris_type": 0,
        "meta_classification_type": "U",
        "meta_norad_cat_id": 35580,
        "meta_element_set_no": 999,
        "meta_rev_at_epoch": 62381,
        "meta_bstar": 0.0017137,
        "meta_mean_motion_dot": 2.557e-05,
        "meta_mean_motion_ddot": 0,
        "tle_line1": "1 35580U 93036ALX 25355.73043082  .00002557  00000+0  17137-2 0  9998",
        "tle_line2": "2 35580  73.9009 163.4331 0280794 166.9266 193.9339 13.83913818623810"
      },
      "geometry": {
        "type": "Point",
        "coordinates": [
          -30.94334043236381,
          38.12435848668357
        ]
      }
    }
  ]
}